CCSDS_OMM_VERS = 2.0
CREATION_DATE  = 
ORIGINATOR     = 

OBJECT_NAME    = STARLINK-36434
OBJECT_ID      = 2026-002T
CENTER_NAME    = EARTH
REF_FRAME      = TEME
TIME_SYSTEM    = UTC
MEAN_ELEMENT_THEORY = SGP/SGP4

EPOCH          = 2026-01-26T20:00:01.999008
MEAN_MOTION    = 15.61019624
ECCENTRICITY   = .0001494
INCLINATION    = 42.9987
RA_OF_ASC_NODE = 203.9013
ARG_OF_PERICENTER = 266.6726
MEAN_ANOMALY   = 21.5657

EPHEMERIS_TYPE = 0
CLASSIFICATION_TYPE = U
NORAD_CAT_ID   = 67322
ELEMENT_SET_NO = 999
REV_AT_EPOCH   = 469
BSTAR          = -.26989E-1
MEAN_MOTION_DOT = -.2041594E-1
MEAN_MOTION_DDOT = 0

CCSDS_OMM_VERS = 2.0
CREATION_DATE  = 
ORIGINATOR     = 

OBJECT_NAME    = STARLINK-36497
OBJECT_ID      = 2026-002U
CENTER_NAME    = EARTH
REF_FRAME      = TEME
TIME_SYSTEM    = UTC
MEAN_ELEMENT_THEORY = SGP/SGP4

EPOCH          = 2026-01-26T20:00:01.999008
MEAN_MOTION    = 15.61014029
ECCENTRICITY   = .0001667
INCLINATION    = 42.9989
RA_OF_ASC_NODE = 203.8909
ARG_OF_PERICENTER = 271.1331
MEAN_ANOMALY   = 20.9427

EPHEMERIS_TYPE = 0
CLASSIFICATION_TYPE = U
NORAD_CAT_ID   = 67323
ELEMENT_SET_NO = 999
REV_AT_EPOCH   = 474
BSTAR          = -.2694E-1
MEAN_MOTION_DOT = -.2038153E-1
MEAN_MOTION_DDOT = 0

CCSDS_OMM_VERS = 2.0
CREATION_DATE  = 
ORIGINATOR     = 

OBJECT_NAME    = STARLINK-36471
OBJECT_ID      = 2026-002V
CENTER_NAME    = EARTH
REF_FRAME      = TEME
TIME_SYSTEM    = UTC
MEAN_ELEMENT_THEORY = SGP/SGP4

EPOCH          = 2026-01-26T20:00:01.999008
MEAN_MOTION    = 15.60913880
ECCENTRICITY   = .0001956
INCLINATION    = 42.9990
RA_OF_ASC_NODE = 203.8817
ARG_OF_PERICENTER = 271.9552
MEAN_ANOMALY   = 24.0612

EPHEMERIS_TYPE = 0
CLASSIFICATION_TYPE = U
NORAD_CAT_ID   = 67324
ELEMENT_SET_NO = 999
REV_AT_EPOCH   = 469
BSTAR          = -.26023E-1
MEAN_MOTION_DOT = -.1970675E-1
MEAN_MOTION_DDOT = 0

CCSDS_OMM_VERS = 2.0
CREATION_DATE  = 
ORIGINATOR     = 

OBJECT_NAME    = STARLINK-36473
OBJECT_ID      = 2026-002W
CENTER_NAME    = EARTH
REF_FRAME      = TEME
TIME_SYSTEM    = UTC
MEAN_ELEMENT_THEORY = SGP/SGP4

EPOCH          = 2026-01-26T20:00:01.999008
MEAN_MOTION    = 15.61015526
ECCENTRICITY   = .0001586
INCLINATION    = 42.9990
RA_OF_ASC_NODE = 203.8861
ARG_OF_PERICENTER = 268.5035
MEAN_ANOMALY   = 25.4876

EPHEMERIS_TYPE = 0
CLASSIFICATION_TYPE = U
NORAD_CAT_ID   = 67325
ELEMENT_SET_NO = 999
REV_AT_EPOCH   = 484
BSTAR          = -.2694E-1
MEAN_MOTION_DOT = -.203818E-1
MEAN_MOTION_DDOT = 0

CCSDS_OMM_VERS = 2.0
CREATION_DATE  = 
ORIGINATOR     = 

OBJECT_NAME    = STARLINK-36430
OBJECT_ID      = 2026-002X
CENTER_NAME    = EARTH
REF_FRAME      = TEME
TIME_SYSTEM    = UTC
MEAN_ELEMENT_THEORY = SGP/SGP4

EPOCH          = 2026-01-26T20:00:01.999008
MEAN_MOTION    = 15.61019065
ECCENTRICITY   = .0001596
INCLINATION    = 42.9989
RA_OF_ASC_NODE = 203.8710
ARG_OF_PERICENTER = 271.0479
MEAN_ANOMALY   = 28.6945

EPHEMERIS_TYPE = 0
CLASSIFICATION_TYPE = U
NORAD_CAT_ID   = 67326
ELEMENT_SET_NO = 999
REV_AT_EPOCH   = 484
BSTAR          = -.27031E-1
MEAN_MOTION_DOT = -.2044425E-1
MEAN_MOTION_DDOT = 0

CCSDS_OMM_VERS = 2.0
CREATION_DATE  = 
ORIGINATOR     = 

OBJECT_NAME    = STARLINK-36501
OBJECT_ID      = 2026-002Y
CENTER_NAME    = EARTH
REF_FRAME      = TEME
TIME_SYSTEM    = UTC
MEAN_ELEMENT_THEORY = SGP/SGP4

EPOCH          = 2026-01-23T20:23:48.628896
MEAN_MOTION    = 15.74765594
ECCENTRICITY   = .00042463
INCLINATION    = 42.9991
RA_OF_ASC_NODE = 221.7697
ARG_OF_PERICENTER = 138.9671
MEAN_ANOMALY   = 221.1518

EPHEMERIS_TYPE = 0
CLASSIFICATION_TYPE = U
NORAD_CAT_ID   = 67327
ELEMENT_SET_NO = 999
REV_AT_EPOCH   = 418
BSTAR          = .1209596E-2
MEAN_MOTION_DOT = .187321E-2
MEAN_MOTION_DDOT = 0

CCSDS_OMM_VERS = 2.0
CREATION_DATE  = 
ORIGINATOR     = 

OBJECT_NAME    = STARLINK-36489
OBJECT_ID      = 2026-002Z
CENTER_NAME    = EARTH
REF_FRAME      = TEME
TIME_SYSTEM    = UTC
MEAN_ELEMENT_THEORY = SGP/SGP4

EPOCH          = 2026-01-26T20:00:01.999008
MEAN_MOTION    = 15.61017969
ECCENTRICITY   = .0001622
INCLINATION    = 42.9992
RA_OF_ASC_NODE = 203.8671
ARG_OF_PERICENTER = 268.6955
MEAN_ANOMALY   = 32.9615

EPHEMERIS_TYPE = 0
CLASSIFICATION_TYPE = U
NORAD_CAT_ID   = 67328
ELEMENT_SET_NO = 999
REV_AT_EPOCH   = 484
BSTAR          = -.2694E-1
MEAN_MOTION_DOT = -.2038358E-1
MEAN_MOTION_DDOT = 0

CCSDS_OMM_VERS = 2.0
CREATION_DATE  = 
ORIGINATOR     = 

OBJECT_NAME    = STARLINK-36496
OBJECT_ID      = 2026-002AA
CENTER_NAME    = EARTH
REF_FRAME      = TEME
TIME_SYSTEM    = UTC
MEAN_ELEMENT_THEORY = SGP/SGP4

EPOCH          = 2026-01-26T20:00:01.999008
MEAN_MOTION    = 15.61018916
ECCENTRICITY   = .0001751
INCLINATION    = 42.9987
RA_OF_ASC_NODE = 203.8562
ARG_OF_PERICENTER = 271.9465
MEAN_ANOMALY   = 33.5469

EPHEMERIS_TYPE = 0
CLASSIFICATION_TYPE = U
NORAD_CAT_ID   = 67329
ELEMENT_SET_NO = 999
REV_AT_EPOCH   = 467
BSTAR          = -.27042E-1
MEAN_MOTION_DOT = -.2045299E-1
MEAN_MOTION_DDOT = 0

CCSDS_OMM_VERS = 2.0
CREATION_DATE  = 
ORIGINATOR     = 

OBJECT_NAME    = STARLINK-36483
OBJECT_ID      = 2026-002AB
CENTER_NAME    = EARTH
REF_FRAME      = TEME
TIME_SYSTEM    = UTC
MEAN_ELEMENT_THEORY = SGP/SGP4

EPOCH          = 2026-01-26T20:00:01.999008
MEAN_MOTION    = 15.61017933
ECCENTRICITY   = .0001675
INCLINATION    = 42.9987
RA_OF_ASC_NODE = 203.8465
ARG_OF_PERICENTER = 272.7556
MEAN_ANOMALY   = 36.5705

EPHEMERIS_TYPE = 0
CLASSIFICATION_TYPE = U
NORAD_CAT_ID   = 67330
ELEMENT_SET_NO = 999
REV_AT_EPOCH   = 484
BSTAR          = -.2697E-1
MEAN_MOTION_DOT = -.2040371E-1
MEAN_MOTION_DDOT = 0

CCSDS_OMM_VERS = 2.0
CREATION_DATE  = 
ORIGINATOR     = 

OBJECT_NAME    = STARLINK-36494
OBJECT_ID      = 2026-002AC
CENTER_NAME    = EARTH
REF_FRAME      = TEME
TIME_SYSTEM    = UTC
MEAN_ELEMENT_THEORY = SGP/SGP4

EPOCH          = 2026-01-26T20:00:01.999008
MEAN_MOTION    = 15.61015766
ECCENTRICITY   = .0001705
INCLINATION    = 42.9990
RA_OF_ASC_NODE = 203.8612
ARG_OF_PERICENTER = 270.1772
MEAN_ANOMALY   = 33.3995

EPHEMERIS_TYPE = 0
CLASSIFICATION_TYPE = U
NORAD_CAT_ID   = 67331
ELEMENT_SET_NO = 999
REV_AT_EPOCH   = 484
BSTAR          = -.26962E-1
MEAN_MOTION_DOT = -.2039738E-1
MEAN_MOTION_DDOT = 0

CCSDS_OMM_VERS = 2.0
CREATION_DATE  = 
ORIGINATOR     = 

OBJECT_NAME    = STARLINK-36492
OBJECT_ID      = 2026-002AD
CENTER_NAME    = EARTH
REF_FRAME      = TEME
TIME_SYSTEM    = UTC
MEAN_ELEMENT_THEORY = SGP/SGP4

EPOCH          = 2026-01-26T20:00:01.999008
MEAN_MOTION    = 15.61018803
ECCENTRICITY   = .0001571
INCLINATION    = 42.9988
RA_OF_ASC_NODE = 203.8516
ARG_OF_PERICENTER = 271.3623
MEAN_ANOMALY   = 36.0495

EPHEMERIS_TYPE = 0
CLASSIFICATION_TYPE = U
NORAD_CAT_ID   = 67332
ELEMENT_SET_NO = 999
REV_AT_EPOCH   = 484
BSTAR          = -.27016E-1
MEAN_MOTION_DOT = -.2043394E-1
MEAN_MOTION_DDOT = 0

CCSDS_OMM_VERS = 2.0
CREATION_DATE  = 
ORIGINATOR     = 

OBJECT_NAME    = STARLINK-36427
OBJECT_ID      = 2026-002AE
CENTER_NAME    = EARTH
REF_FRAME      = TEME
TIME_SYSTEM    = UTC
MEAN_ELEMENT_THEORY = SGP/SGP4

EPOCH          = 2026-01-26T20:00:01.999008
MEAN_MOTION    = 15.50703980
ECCENTRICITY   = .0001792
INCLINATION    = 42.9992
RA_OF_ASC_NODE = 203.6911
ARG_OF_PERICENTER = 278.5912
MEAN_ANOMALY   = 87.2984

EPHEMERIS_TYPE = 0
CLASSIFICATION_TYPE = U
NORAD_CAT_ID   = 67333
ELEMENT_SET_NO = 999
REV_AT_EPOCH   = 474
BSTAR          = -.66663E-2
MEAN_MOTION_DOT = -.374969E-2
MEAN_MOTION_DDOT = 0

