STARLINK-36434          
1 67322U 26002T   26026.83335647 -.02041594  00000+0 -26989-1 0  9996
2 67322  42.9987 203.9013 0001494 266.6726  21.5657 15.61019624  4692
STARLINK-36497          
1 67323U 26002U   26026.83335647 -.02038153  00000+0 -26940-1 0  9991
2 67323  42.9989 203.8909 0001667 271.1331  20.9427 15.61014029  4741
STARLINK-36471          
1 67324U 26002V   26026.83335647 -.01970675  00000+0 -26023-1 0  9997
2 67324  42.9990 203.8817 0001956 271.9552  24.0612 15.60913880  4693
STARLINK-36473          
1 67325U 26002W   26026.83335647 -.02038180  00000+0 -26940-1 0  9993
2 67325  42.9990 203.8861 0001586 268.5035  25.4876 15.61015526  4845
STARLINK-36430          
1 67326U 26002X   26026.83335647 -.02044425  00000+0 -27031-1 0  9995
2 67326  42.9989 203.8710 0001596 271.0479  28.6945 15.61019065  4843
STARLINK-36501          
1 67327U 26002Y   26023.84986839  .00187321  00000+0  12096-2 0  9994
2 67327  42.9991 221.7697 0004246 138.9671 221.1518 15.74765594  4182
STARLINK-36489          
1 67328U 26002Z   26026.83335647 -.02038358  00000+0 -26940-1 0  9993
2 67328  42.9992 203.8671 0001622 268.6955  32.9615 15.61017969  4849
STARLINK-36496          
1 67329U 26002AA  26026.83335647 -.02045299  00000+0 -27042-1 0  9990
2 67329  42.9987 203.8562 0001751 271.9465  33.5469 15.61018916  4677
STARLINK-36483          
1 67330U 26002AB  26026.83335647 -.02040371  00000+0 -26970-1 0  9997
2 67330  42.9987 203.8465 0001675 272.7556  36.5705 15.61017933  4849
STARLINK-36494          
1 67331U 26002AC  26026.83335647 -.02039738  00000+0 -26962-1 0  9994
2 67331  42.9990 203.8612 0001705 270.1772  33.3995 15.61015766  4842
STARLINK-36492          
1 67332U 26002AD  26026.83335647 -.02043394  00000+0 -27016-1 0  9999
2 67332  42.9988 203.8516 0001571 271.3623  36.0495 15.61018803  4842
STARLINK-36427          
1 67333U 26002AE  26026.83335647 -.00374969  00000+0 -66663-2 0  9995
2 67333  42.9992 203.6911 0001792 278.5912  87.2984 15.50703980  4745
